*******************************************************************************
Ephemeris / WWW_USER Mon Mar 24 07:47:58 2025 Pasadena, USA      / Horizons    
*******************************************************************************
Target body name: (2018 TB)                       {source: JPL#26}
Center body name: Earth (399)                     {source: DE441}
Center-site name: Mauna Kea
*******************************************************************************
Start time      : A.D. 2018-Nov-22 03:51:00.0000 UT      
Stop  time      : A.D. 2018-Nov-22 16:25:00.0000 UT      
Step-size       : 1 minutes
*******************************************************************************
Target pole/equ : undefined
Target radii    : undefined                                                    
Center geodetic : 204.5278, 19.8260847, 4.21024   {E-lon(deg),Lat(deg),Alt(km)}
Center cylindric: 204.5278, 6006.35451, 2151.0229 {E-lon(deg),Dxy(km),Dz(km)}
Center pole/equ : ITRF93                          {East-longitude positive}
Center radii    : 6378.137, 6378.137, 6356.752 km {Equator_a, b, pole_c}       
Target primary  : Sun
Vis. interferer : MOON (R_eq= 1737.400) km        {source: DE441}
Rel. light bend : Sun                             {source: DE441}
Rel. lght bnd GM: 1.3271E+11 km^3/s^2                                          
Small-body perts: Yes                             {source: SB441-N16}
Atmos refraction: NO (AIRLESS)
RA format       : HMS
Time format     : CAL 
Calendar mode   : Mixed Julian/Gregorian
RTS-only print  : NO       
EOP file        : eop.250321.p250617                                           
EOP coverage    : DATA-BASED 1962-JAN-20 TO 2025-MAR-21. PREDICTS-> 2025-JUN-16
Units conversion: 1 au= 149597870.700 km, c= 299792.458 km/s, 1 day= 86400.0 s 
Table cut-offs 1: Elevation (-90.0deg=NO ),Airmass (>38.000=NO), Daylight (YES)
Table cut-offs 2: Solar elongation (  0.0,180.0=NO ),Local Hour Angle( 0.0=NO )
Table cut-offs 3: RA/DEC angular rate (     0.0=NO )                           
*******************************************************************************
Initial IAU76/J2000 heliocentric ecliptic osculating elements (au, days, deg.):
  EPOCH=  2458410.5 ! 2018-Oct-19.00 (TDB)         Residual RMS= .12604        
   EC= .5817616216321111   QR= 1.001672821897195   TP= 2458383.1822299529      
   OM= 14.42282174156359   W=  341.1556337077549   IN= 3.61300419916586        
  Equivalent ICRF heliocentric cartesian coordinates (au, au/d):
   X= 9.381709462996228E-01  Y= 4.515017153732180E-01  Z= 2.129237315158303E-01
  VX=-5.799214133182419E-03 VY= 1.778204046057418E-02 VZ= 9.138573561666745E-03
Asteroid physical parameters (km, seconds, rotational period in hours):        
   GM= n.a.                RAD= n.a.               ROTPER= n.a.                
   H= 24.89                G= .150                 B-V= n.a.                   
                           ALBEDO= n.a.            STYP= n.a.                  
*******************************************************************************
 Date__(UT)__HR:MN     R.A._________(ICRF)_________DEC
******************************************************
$$SOE
 2018-Nov-22 03:51 Cm  03 45 48.940115 +31 46 29.41562
 2018-Nov-22 03:52 Cm  03 45 48.924785 +31 46 29.23219
 2018-Nov-22 03:53 Cm  03 45 48.909411 +31 46 29.04877
 2018-Nov-22 03:54 Cm  03 45 48.893995 +31 46 28.86536
 2018-Nov-22 03:55 Cm  03 45 48.878535 +31 46 28.68196
 2018-Nov-22 03:56 Cm  03 45 48.863032 +31 46 28.49857
 2018-Nov-22 03:57 Cm  03 45 48.847485 +31 46 28.31518
 2018-Nov-22 03:58 Cm  03 45 48.831896 +31 46 28.13180
 2018-Nov-22 03:59 Cm  03 45 48.816263 +31 46 27.94841
 2018-Nov-22 04:00 Cm  03 45 48.800587 +31 46 27.76503
 2018-Nov-22 04:01 Cm  03 45 48.784867 +31 46 27.58165
 2018-Nov-22 04:02 Cm  03 45 48.769105 +31 46 27.39827
 2018-Nov-22 04:03 Cm  03 45 48.753299 +31 46 27.21488
 2018-Nov-22 04:04 Cm  03 45 48.737449 +31 46 27.03149
 2018-Nov-22 04:05 Nm  03 45 48.721557 +31 46 26.84809
 2018-Nov-22 04:06 Nm  03 45 48.705621 +31 46 26.66469
 2018-Nov-22 04:07 Nm  03 45 48.689642 +31 46 26.48128
 2018-Nov-22 04:08 Nm  03 45 48.673620 +31 46 26.29786
 2018-Nov-22 04:09 Nm  03 45 48.657554 +31 46 26.11443
 2018-Nov-22 04:10 Nm  03 45 48.641445 +31 46 25.93099
 2018-Nov-22 04:11 Nm  03 45 48.625293 +31 46 25.74753
 2018-Nov-22 04:12 Nm  03 45 48.609098 +31 46 25.56406
 2018-Nov-22 04:13 Nm  03 45 48.592859 +31 46 25.38058
 2018-Nov-22 04:14 Nm  03 45 48.576577 +31 46 25.19708
 2018-Nov-22 04:15 Nm  03 45 48.560252 +31 46 25.01356
 2018-Nov-22 04:16 Nm  03 45 48.543884 +31 46 24.83002
 2018-Nov-22 04:17 Nm  03 45 48.527473 +31 46 24.64646
 2018-Nov-22 04:18 Nm  03 45 48.511018 +31 46 24.46288
 2018-Nov-22 04:19 Nm  03 45 48.494521 +31 46 24.27927
 2018-Nov-22 04:20 Nm  03 45 48.477980 +31 46 24.09564
 2018-Nov-22 04:21 Nm  03 45 48.461396 +31 46 23.91198
 2018-Nov-22 04:22 Nm  03 45 48.444769 +31 46 23.72830
 2018-Nov-22 04:23 Nm  03 45 48.428098 +31 46 23.54458
 2018-Nov-22 04:24 Nm  03 45 48.411385 +31 46 23.36084
 2018-Nov-22 04:25 Nm  03 45 48.394629 +31 46 23.17707
 2018-Nov-22 04:26 Nm  03 45 48.377829 +31 46 22.99326
 2018-Nov-22 04:27 Nm  03 45 48.360987 +31 46 22.80942
 2018-Nov-22 04:28 Nm  03 45 48.344102 +31 46 22.62555
 2018-Nov-22 04:29 Nm  03 45 48.327173 +31 46 22.44164
 2018-Nov-22 04:30 Nm  03 45 48.310202 +31 46 22.25769
 2018-Nov-22 04:31 Nm  03 45 48.293188 +31 46 22.07370
 2018-Nov-22 04:32 Am  03 45 48.276130 +31 46 21.88967
 2018-Nov-22 04:33 Am  03 45 48.259030 +31 46 21.70560
 2018-Nov-22 04:34 Am  03 45 48.241887 +31 46 21.52149
 2018-Nov-22 04:35 Am  03 45 48.224702 +31 46 21.33734
 2018-Nov-22 04:36 Am  03 45 48.207473 +31 46 21.15314
 2018-Nov-22 04:37 Am  03 45 48.190202 +31 46 20.96889
 2018-Nov-22 04:38 Am  03 45 48.172888 +31 46 20.78459
 2018-Nov-22 04:39 Am  03 45 48.155531 +31 46 20.60025
 2018-Nov-22 04:40 Am  03 45 48.138131 +31 46 20.41585
 2018-Nov-22 04:41 Am  03 45 48.120689 +31 46 20.23141
 2018-Nov-22 04:42 Am  03 45 48.103204 +31 46 20.04691
 2018-Nov-22 04:43 Am  03 45 48.085677 +31 46 19.86236
 2018-Nov-22 04:44 Am  03 45 48.068107 +31 46 19.67775
 2018-Nov-22 04:45 Am  03 45 48.050495 +31 46 19.49308
 2018-Nov-22 04:46 Am  03 45 48.032840 +31 46 19.30836
 2018-Nov-22 04:47 Am  03 45 48.015142 +31 46 19.12357
 2018-Nov-22 04:48 Am  03 45 47.997403 +31 46 18.93873
 2018-Nov-22 04:49 Am  03 45 47.979621 +31 46 18.75383
 2018-Nov-22 04:50 Am  03 45 47.961796 +31 46 18.56886
 2018-Nov-22 04:51 Am  03 45 47.943929 +31 46 18.38383
 2018-Nov-22 04:52 Am  03 45 47.926020 +31 46 18.19873
 2018-Nov-22 04:53 Am  03 45 47.908069 +31 46 18.01356
 2018-Nov-22 04:54 Am  03 45 47.890076 +31 46 17.82833
 2018-Nov-22 04:55 Am  03 45 47.872040 +31 46 17.64303
 2018-Nov-22 04:56 Am  03 45 47.853963 +31 46 17.45766
 2018-Nov-22 04:57 Am  03 45 47.835843 +31 46 17.27221
 2018-Nov-22 04:58 Am  03 45 47.817682 +31 46 17.08669
 2018-Nov-22 04:59  m  03 45 47.799478 +31 46 16.90110
 2018-Nov-22 05:00  m  03 45 47.781233 +31 46 16.71543
 2018-Nov-22 05:01  m  03 45 47.762946 +31 46 16.52969
 2018-Nov-22 05:02  m  03 45 47.744616 +31 46 16.34387
 2018-Nov-22 05:03  m  03 45 47.726246 +31 46 16.15796
 2018-Nov-22 05:04  m  03 45 47.707833 +31 46 15.97198
 2018-Nov-22 05:05  m  03 45 47.689379 +31 46 15.78592
 2018-Nov-22 05:06  m  03 45 47.670883 +31 46 15.59977
 2018-Nov-22 05:07  m  03 45 47.652346 +31 46 15.41354
 2018-Nov-22 05:08  m  03 45 47.633767 +31 46 15.22722
 2018-Nov-22 05:09  m  03 45 47.615147 +31 46 15.04082
 2018-Nov-22 05:10  m  03 45 47.596486 +31 46 14.85432
 2018-Nov-22 05:11  m  03 45 47.577783 +31 46 14.66774
 2018-Nov-22 05:12  m  03 45 47.559039 +31 46 14.48107
 2018-Nov-22 05:13  m  03 45 47.540254 +31 46 14.29431
 2018-Nov-22 05:14  m  03 45 47.521427 +31 46 14.10745
 2018-Nov-22 05:15  m  03 45 47.502560 +31 46 13.92050
 2018-Nov-22 05:16  m  03 45 47.483651 +31 46 13.73345
 2018-Nov-22 05:17  m  03 45 47.464702 +31 46 13.54631
 2018-Nov-22 05:18  m  03 45 47.445711 +31 46 13.35907
 2018-Nov-22 05:19  m  03 45 47.426680 +31 46 13.17173
 2018-Nov-22 05:20  m  03 45 47.407608 +31 46 12.98429
 2018-Nov-22 05:21  m  03 45 47.388495 +31 46 12.79675
 2018-Nov-22 05:22  m  03 45 47.369342 +31 46 12.60910
 2018-Nov-22 05:23  m  03 45 47.350148 +31 46 12.42136
 2018-Nov-22 05:24  m  03 45 47.330914 +31 46 12.23350
 2018-Nov-22 05:25  m  03 45 47.311639 +31 46 12.04554
 2018-Nov-22 05:26  m  03 45 47.292323 +31 46 11.85748
 2018-Nov-22 05:27  m  03 45 47.272968 +31 46 11.66930
 2018-Nov-22 05:28  m  03 45 47.253572 +31 46 11.48101
 2018-Nov-22 05:29  m  03 45 47.234136 +31 46 11.29262
 2018-Nov-22 05:30  m  03 45 47.214660 +31 46 11.10411
 2018-Nov-22 05:31  m  03 45 47.195144 +31 46 10.91548
 2018-Nov-22 05:32  m  03 45 47.175588 +31 46 10.72675
 2018-Nov-22 05:33  m  03 45 47.155992 +31 46 10.53789
 2018-Nov-22 05:34  m  03 45 47.136356 +31 46 10.34892
 2018-Nov-22 05:35  m  03 45 47.116681 +31 46 10.15983
 2018-Nov-22 05:36  m  03 45 47.096966 +31 46 09.97063
 2018-Nov-22 05:37  m  03 45 47.077211 +31 46 09.78130
 2018-Nov-22 05:38  m  03 45 47.057417 +31 46 09.59184
 2018-Nov-22 05:39  m  03 45 47.037584 +31 46 09.40227
 2018-Nov-22 05:40  m  03 45 47.017711 +31 46 09.21257
 2018-Nov-22 05:41  m  03 45 46.997799 +31 46 09.02275
 2018-Nov-22 05:42  m  03 45 46.977847 +31 46 08.83280
 2018-Nov-22 05:43  m  03 45 46.957857 +31 46 08.64272
 2018-Nov-22 05:44  m  03 45 46.937827 +31 46 08.45251
 2018-Nov-22 05:45  m  03 45 46.917759 +31 46 08.26218
 2018-Nov-22 05:46  m  03 45 46.897652 +31 46 08.07171
 2018-Nov-22 05:47  m  03 45 46.877506 +31 46 07.88111
 2018-Nov-22 05:48  m  03 45 46.857321 +31 46 07.69037
 2018-Nov-22 05:49  m  03 45 46.837098 +31 46 07.49951
 2018-Nov-22 05:50  m  03 45 46.816836 +31 46 07.30850
 2018-Nov-22 05:51  m  03 45 46.796536 +31 46 07.11736
 2018-Nov-22 05:52  m  03 45 46.776198 +31 46 06.92608
 2018-Nov-22 05:53  m  03 45 46.755821 +31 46 06.73466
